OBJECT_NAME,OBJECT_ID,EPOCH,MEAN_MOTION,ECCENTRICITY,INCLINATION,RA_OF_ASC_NODE,ARG_OF_PERICENTER,MEAN_ANOMALY,EPHEMERIS_TYPE,CLASSIFICATION_TYPE,NORAD_CAT_ID,ELEMENT_SET_NO,REV_AT_EPOCH,BSTAR,MEAN_MOTION_DOT,MEAN_MOTION_DDOT
STARLINK-37934,2026-135X,2026-07-07T10:38:05.764992,15.81011723,.00032614,97.2845,216.6838,125.2579,234.8995,0,U,69567,999,346,.14681327E-2,.293381E-2,0
SHIJIAN-31 (SJ-31),2026-136A,2026-07-11T10:11:54.171456,1.92226715,.69402285,63.4858,353.5832,171.8290,212.2965,0,U,69570,999,55,0,-.284E-5,0
CZ-3B R/B,2026-136B,2026-07-10T06:18:14.404608,2.36167064,.72715593,63.4296,351.4733,171.4867,216.5354,0,U,69571,999,56,.46218899E-3,.320601E-2,-.992062E-6
GUOWANG OBJECT A,2026-137A,2026-07-09T08:51:32.527872,13.89812603,.00125573,49.9993,167.0911,299.3374,60.6270,0,U,69572,999,310,.29402617E-4,-.11E-5,0
GUOWANG OBJECT B,2026-137B,2026-07-09T15:41:33.480672,13.89803849,.00118595,50.0016,165.9303,298.8434,61.1273,0,U,69573,999,315,-.55136387E-4,-.214E-5,0
GUOWANG OBJECT C,2026-137C,2026-07-09T15:39:58.501152,13.89815350,.00119046,49.9962,165.9102,300.6112,59.3612,0,U,69574,999,315,.72323156E-4,-.57E-6,0
GUOWANG OBJECT D,2026-137D,2026-07-09T15:38:20.572800,13.89827781,.00110869,49.9953,165.9027,299.2996,60.6794,0,U,69575,999,315,-.17667174E-4,-.168E-5,0
GUOWANG OBJECT E,2026-137E,2026-07-09T15:36:55.900800,13.89825186,.00112638,50.0036,165.9215,302.1342,57.8463,0,U,69576,999,315,-.55274093E-4,-.214E-5,0
GUOWANG OBJECT F,2026-137F,2026-07-09T15:35:44.385792,13.89809494,.00108496,50.0025,165.9144,302.1836,57.8010,0,U,69577,999,315,-.5598398E-4,-.215E-5,0
GUOWANG OBJECT G,2026-137G,2026-07-11T07:16:00.337152,13.89795025,.0010806,49.9952,159.3085,307.5258,52.4657,0,U,69578,999,338,.35461E-5,-.142E-5,0
GUOWANG OBJECT H,2026-137H,2026-07-10T00:11:03.674688,13.89776278,.00102494,50.0012,164.4679,306.3680,53.6272,0,U,69579,999,320,-.23862216E-4,-.175E-5,0
GUOWANG OBJECT J,2026-137J,2026-06-27T06:41:01.268160,13.91997107,.0011832,49.9961,215.0979,257.3150,102.6427,0,U,69580,999,143,.13174E-3,.22E-6,0
CENTISPACE-1 GROUP 05 OBJECT A,2026-138A,2026-07-11T08:43:45.092640,14.15470714,.00111399,55.1386,191.8994,335.9140,24.1312,0,U,69582,999,344,.17252244E-4,-.12E-5,0
CENTISPACE-1 GROUP 05 OBJECT B,2026-138B,2026-07-11T12:02:38.086944,14.15650673,.00101209,55.1381,191.3601,336.6120,23.4392,0,U,69583,999,346,-.28198287E-4,-.209E-5,0
CENTISPACE-1 GROUP 05 OBJECT C,2026-138C,2026-07-11T12:00:31.872960,14.15734437,.00100466,55.1387,191.3611,338.2500,21.8047,0,U,69584,999,346,-.48375265E-4,-.249E-5,0
CENTISPACE-1 GROUP 05 OBJECT D,2026-138D,2026-07-10T10:31:18.160896,14.15920758,.00095429,55.1385,195.2493,334.9114,25.1396,0,U,69585,999,331,-.10663654E-3,-.365E-5,0
CENTISPACE-1 GROUP 05 OBJECT E,2026-138E,2026-07-11T16:59:31.690752,14.15987201,.000937,55.1377,190.5552,338.3184,21.7392,0,U,69586,999,349,-.93172E-4,-.338E-5,0
CENTISPACE-1 GROUP 05 OBJECT G,2026-138G,2026-07-11T10:10:27.792192,14.16074414,.00085276,55.1382,191.5885,341.6633,18.4033,0,U,69588,999,345,-.11929269E-3,-.39E-5,0
SPACEMOBILE-008,2026-139A,2026-07-11T07:42:17.182944,15.12799068,.00048794,52.9941,152.9965,47.3692,312.7710,0,U,69589,999,363,.21806253E-4,.86E-6,0
SPACEMOBILE-009,2026-139B,2026-07-11T12:30:08.483328,15.12692406,.00051321,52.9933,152.1023,43.2568,316.8825,0,U,69590,999,366,.17235269E-4,.4E-7,0
SPACEMOBILE-010,2026-139C,2026-07-10T22:17:40.116192,15.12522766,.0004992,52.9937,154.8205,33.2635,326.8669,0,U,69591,999,358,.19201725E-4,.38E-6,0
KUIPER-00423,2026-140A,2026-07-11T17:45:26.779392,15.38405477,.0011788,51.8793,279.7863,258.6701,101.2962,0,U,69592,999,501,-.52656E-3,-.20658E-3,0
